{"type": "FeatureCollection", "features": [{"type": "Feature", "properties": {"axis": "consell_de_cent", "phase": "eixos_verds_2022_2023", "length_m": 2999.5, "distance_metric": "interim_euclidean_utm31n"}, "geometry": {"type": "MultiLineString", "coordinates": [[[2.14950352907181, 41.3787849800429], [2.155270123, 41.38319485], [2.1580927938814, 41.3859229631157], [2.15999405057183, 41.3861943064478], [2.16782623743917, 41.392200590956], [2.170175343, 41.394429536], [2.170492432, 41.395294749], [2.1747, 41.3973]]]}}, {"type": "Feature", "properties": {"axis": "girona", "phase": "eixos_verds_2022_2023", "length_m": 1180.8, "distance_metric": "interim_euclidean_utm31n"}, "geometry": {"type": "MultiLineString", "coordinates": [[[2.1673155791376315, 41.397677208687234], [2.1673309000000005, 41.397524], [2.1673385, 41.3974986], [2.1673801, 41.3974669]], [[2.1676748, 41.3974328], [2.1675596, 41.39751709999999], [2.1675496, 41.3975266], [2.1675353, 41.3975382], [2.1675079, 41.3975633], [2.1674648000000003, 41.3975921], [2.1674480000000003, 41.3976063], [2.167331970399735, 41.39768861309377]], [[2.1674889, 41.39769340000001], [2.1673844, 41.3976974], [2.167347977019977, 41.39769974987529]], [[2.1676748, 41.3974328], [2.1675488000000005, 41.3974312], [2.1674975000000005, 41.39743200000001], [2.1674562000000006, 41.39743079999999]], [[2.1676748, 41.3974328], [2.1676894999999994, 41.3976266], [2.167683, 41.39764960000001], [2.1676555, 41.3976696]], [[2.1684333000000002, 41.396849599999996], [2.1676748, 41.3974328]], [[2.168447, 41.39669159999999], [2.168435, 41.396785400000006], [2.1684333000000002, 41.396849599999996]], [[2.1688051, 41.3965784], [2.1687719, 41.39660320000001], [2.1686998000000006, 41.3966517], [2.1686806, 41.396666399999994], [2.1686326, 41.39670189999999], [2.1685981, 41.3967274], [2.1685924, 41.39673159999999], [2.1685607999999994, 41.396753899999986], [2.1684333000000002, 41.396849599999996]], [[2.1685044, 41.3966017], [2.1685679000000007, 41.396563099999995], [2.1686007000000003, 41.3965543], [2.1687327999999995, 41.396565499999994], [2.1688051, 41.3965784]], [[2.1688051, 41.3965784], [2.1688071999999994, 41.39673239999999], [2.1688063000000004, 41.3967736]], [[2.1698667000000005, 41.39577159999999], [2.1698462000000003, 41.3957872], [2.1698253000000003, 41.3958027], [2.1697603, 41.39585099999999], [2.1696725, 41.3959188], [2.1695549999999995, 41.3960124], [2.1691701999999995, 41.396295499999994], [2.1688051, 41.3965784]], [[2.1698304000000004, 41.395742099999985], [2.1698667000000005, 41.39577159999999]], [[2.1698667000000005, 41.39577159999999], [2.1699231000000005, 41.39581879999999]], [[2.1706701000000006, 41.39516470000001], [2.169985, 41.39567569999999], [2.1698667000000005, 41.39577159999999]], [[2.1706701000000006, 41.39516470000001], [2.1707098, 41.395184400000005], [2.1710633, 41.39518589999999], [2.1711016, 41.39514569999999]], [[2.1706732, 41.3949924], [2.1706715, 41.3951018], [2.1706701000000006, 41.39516470000001]], [[2.1706701000000006, 41.39516470000001], [2.1707042000000003, 41.3951608], [2.1708112, 41.3951136], [2.1709084000000005, 41.39499959999999], [2.1710402, 41.39489150000001], [2.1710928999999997, 41.3948516]], [[2.1710928999999997, 41.3948516], [2.1710987, 41.39492789999999], [2.1710981, 41.3950085]], [[2.1715082000000003, 41.3945383], [2.1713930999999995, 41.3946252], [2.1711274000000005, 41.394825299999994], [2.1710928999999997, 41.3948516]], [[2.1715917, 41.39459589999999], [2.1715082000000003, 41.3945383]], [[2.172207, 41.39399999999999], [2.1720960000000002, 41.3940903], [2.1720729000000003, 41.394110899999994], [2.1720327, 41.39414089999999], [2.1719943999999995, 41.3941701], [2.1719818000000006, 41.39418169999999], [2.1719632, 41.394193099999995], [2.1718700999999996, 41.39426310000001], [2.1718454, 41.394282000000004], [2.1715082000000003, 41.3945383]], [[2.172207, 41.39399999999999], [2.1719877, 41.39400649999999], [2.171950200000001, 41.394018299999985], [2.1719042000000006, 41.39404429999999]], [[2.1731467000000007, 41.393251499999984], [2.1731114, 41.3932804], [2.1731092, 41.39331099999999], [2.1730749999999994, 41.3933355], [2.172207, 41.39399999999999]], [[2.1731467000000007, 41.393251499999984], [2.1731266, 41.393236300000005], [2.1730282, 41.39316199999999]], [[2.1733303000000004, 41.3933907], [2.1732295000000006, 41.39331429999999], [2.1731467000000007, 41.393251499999984]], [[2.1733641, 41.393080799999986], [2.1733021, 41.3931283], [2.1732606, 41.39316259999999], [2.1731818000000005, 41.3932251], [2.1731467000000007, 41.393251499999984]], [[2.1732451, 41.39299429999999], [2.1733474000000004, 41.393068699999986], [2.1733641, 41.393080799999986]], [[2.1734074, 41.3931124], [2.1733002, 41.3931923]], [[2.1733641, 41.393080799999986], [2.1734074, 41.3931124]], [[2.1735067, 41.392970899999995], [2.1734143, 41.393036599999995], [2.1733967999999995, 41.3930507], [2.1733641, 41.393080799999986]], [[2.1734074, 41.3931124], [2.1734523, 41.39314629999999], [2.1735573, 41.393225599999994]], [[2.1735525, 41.3930017], [2.1734606000000003, 41.3930732], [2.1734430000000007, 41.3930849], [2.1734074, 41.3931124]], [[2.1735525, 41.3930017], [2.1735067, 41.392970899999995]], [[2.1735067, 41.392970899999995], [2.1734838000000005, 41.3929545], [2.1735998018390412, 41.39286313421399]], [[2.1736258409507583, 41.39288124990074], [2.1735067, 41.392970899999995]], [[2.1735525, 41.3930017], [2.1735967, 41.393034799999995], [2.173716392565587, 41.392947284537584]], [[2.173670678792709, 41.39291244402668], [2.1736315, 41.3929419], [2.1735952999999997, 41.392969099999995], [2.1735525, 41.3930017]]]}}, {"type": "Feature", "properties": {"axis": "rocafort", "phase": "eixos_verds_2022_2023", "length_m": 1026.5, "distance_metric": "interim_euclidean_utm31n"}, "geometry": {"type": "MultiLineString", "coordinates": [[[2.149191144640786, 41.38239534915222], [2.1492018000000006, 41.38238760000001]], [[2.1492018000000006, 41.38238760000001], [2.1492054, 41.38233590000001], [2.149208, 41.3822828]], [[2.1492018000000006, 41.38238760000001], [2.1493131000000005, 41.38237019999999], [2.1493549, 41.382363900000016], [2.1493958000000006, 41.38236109999998], [2.1494561, 41.38236049999998]], [[2.149208, 41.3822828], [2.1492157, 41.38222799999999], [2.1492267, 41.382175700000005], [2.1492317, 41.3821558], [2.1492359000000003, 41.3821499], [2.1492730999999994, 41.382113999999994]], [[2.149208, 41.3822828], [2.1493239000000006, 41.38228159999999], [2.1493479000000004, 41.382275299999996], [2.1493714, 41.38225909999999], [2.1493774000000005, 41.382254599999996], [2.1494186, 41.3822237], [2.1494522, 41.3821987], [2.1494755, 41.38218349999999], [2.1495093, 41.382152899999994]], [[2.1494350000000004, 41.38207409999998], [2.1495172999999994, 41.382076100000006]], [[2.1495093, 41.382152899999994], [2.1495172999999994, 41.382076100000006]], [[2.1495093, 41.382152899999994], [2.1496117000000003, 41.38214459999999]], [[2.1495172999999994, 41.382076100000006], [2.1496136, 41.3820785]], [[2.1496117000000003, 41.38214459999999], [2.1496142999999996, 41.382247], [2.1496013999999994, 41.3822794], [2.1495816, 41.3822965], [2.1495488000000003, 41.38232479999999]], [[2.1496136, 41.3820785], [2.1496117000000003, 41.38214459999999]], [[2.1496136, 41.3820785], [2.1502536000000005, 41.381584100000005], [2.1503403999999997, 41.38152430000002]], [[2.1503403999999997, 41.38152430000002], [2.1504664000000004, 41.38153009999999]], [[2.1503403999999997, 41.38152430000002], [2.1503406, 41.38143329999999]], [[2.1503406, 41.38143329999999], [2.1503445000000005, 41.381359499999995]], [[2.1503406, 41.38143329999999], [2.1504086999999994, 41.38141249999999], [2.1504375000000002, 41.38139369999999]], [[2.1507211000000006, 41.3812307], [2.1504897, 41.3812407], [2.1504375999999996, 41.3812438], [2.1503848000000003, 41.38126919999999]], [[2.1504664000000004, 41.38153009999999], [2.1505889999999996, 41.3815315], [2.1506147000000007, 41.381530999999995], [2.1506638000000002, 41.38147680000001]], [[2.1504664000000004, 41.38153009999999], [2.150467599999999, 41.38147750000002], [2.1504767999999994, 41.38142570000001], [2.1505330999999996, 41.38137859999999], [2.1505778000000007, 41.381346999999984], [2.1505836000000005, 41.38134299999999], [2.1505913, 41.381336699999984], [2.150603500000001, 41.38132709999999], [2.1507211000000006, 41.3812307]], [[2.1507168, 41.3813656], [2.1507211000000006, 41.3812307]], [[2.1507211000000006, 41.3812307], [2.15145, 41.38068090000001]], [[2.15145, 41.38068090000001], [2.1514857, 41.380653099999996], [2.1515292, 41.3806349], [2.1515919, 41.3805695], [2.1516405999999995, 41.38054619999999], [2.1516934, 41.38050639999999], [2.1517376000000006, 41.3804819], [2.1517927000000006, 41.380444499999996], [2.1518511000000005, 41.380403799999996], [2.1518876000000002, 41.380364099999994]], [[2.15145, 41.38068090000001], [2.1517118000000006, 41.38068019999999]], [[2.1516603, 41.3803631], [2.1518876000000002, 41.380364099999994]], [[2.1518876000000002, 41.380364099999994], [2.1525832000000005, 41.379831599999996]], [[2.1525275999999995, 41.37956500000001], [2.1525787, 41.3796078], [2.1526214, 41.379645]], [[2.1525832000000005, 41.379831599999996], [2.1526216000000002, 41.3796706], [2.1526214, 41.379645]], [[2.1525832000000005, 41.379831599999996], [2.1527169, 41.37982980000001]], [[2.1526214, 41.379645], [2.1527283, 41.37973159999999]], [[2.1526214, 41.379645], [2.152623, 41.3796135]], [[2.1527169, 41.37982980000001], [2.1528000000000005, 41.37983020000001]], [[2.1527169, 41.37982980000001], [2.1527283, 41.37973159999999]], [[2.1527283, 41.37973159999999], [2.1528666999999997, 41.37982920000001], [2.1529330000000004, 41.37987019999999]], [[2.1527283, 41.37973159999999], [2.152757200000001, 41.37970649999999], [2.1527663999999995, 41.3796998], [2.1527999000000007, 41.3796755], [2.1528336, 41.379651], [2.152857, 41.37963499999999]], [[2.1529772999999994, 41.3795425], [2.1528167000000002, 41.37953369999999]], [[2.152834, 41.379618400000005], [2.1528628000000003, 41.3795928], [2.1529031, 41.379577100000006], [2.1529772999999994, 41.3795425]], [[2.1529751, 41.37966549999999], [2.1529772999999994, 41.3795425]], [[2.1529772999999994, 41.3795425], [2.1530011, 41.379524599999996], [2.1534956000000003, 41.3791533], [2.1537006000000005, 41.379000399999995], [2.1537754000000007, 41.3789424], [2.1538291, 41.37890459999999]], [[2.1537673, 41.378854600000004], [2.1538291, 41.37890459999999]], [[2.1539439000000002, 41.37881679999999], [2.1538877000000003, 41.37877550000001], [2.1537952999999996, 41.3787062]], [[2.1538291, 41.37890459999999], [2.153871, 41.3789347]], [[2.1538291, 41.37890459999999], [2.1538884, 41.378859899999995], [2.1539019, 41.378849], [2.1539439000000002, 41.37881679999999]], [[2.154061300000001, 41.3789019], [2.1539904, 41.3788505], [2.1539439000000002, 41.37881679999999]], [[2.1539439000000002, 41.37881679999999], [2.1539634, 41.3788021], [2.1540544, 41.3787307], [2.1541477999999996, 41.3786617], [2.154158, 41.3786533]], [[2.1540081000000004, 41.378535199999995], [2.1541016000000006, 41.37860909999999], [2.154158, 41.3786533]], [[2.154158, 41.3786533], [2.154204, 41.37868979999999], [2.1542799000000006, 41.3787482]], [[2.154158, 41.3786533], [2.1541977000000005, 41.3786209], [2.1542145000000006, 41.378606999999995], [2.1542586174873213, 41.378572854611626]], [[2.154446885701091, 41.3787276289762], [2.1544505, 41.37874209999999]]]}}, {"type": "Feature", "properties": {"axis": "borrell", "phase": "eixos_verds_2022_2023", "length_m": 724.4, "distance_metric": "interim_euclidean_utm31n"}, "geometry": {"type": "MultiLineString", "coordinates": [[[2.1529745551683637, 41.38464749098934], [2.1530294000000003, 41.38460299999999], [2.1530595999999997, 41.3845815], [2.1531183999999994, 41.3845385], [2.1537349, 41.38408640000001]], [[2.1537349, 41.38408640000001], [2.1537437000000006, 41.3840298], [2.1537447, 41.38392910000001], [2.1537460000000004, 41.3839], [2.1537438000000004, 41.38387879999999], [2.1537953, 41.383823400000004], [2.1538351000000002, 41.383806799999995], [2.1538759000000005, 41.3837954], [2.1539232, 41.3837937], [2.1541458999999996, 41.3837834]], [[2.1537349, 41.38408640000001], [2.1537913, 41.3840395], [2.1538694, 41.383978], [2.1538838, 41.38396629999999], [2.1539322, 41.3839302], [2.1539647000000004, 41.383904799999996], [2.1539932999999998, 41.38388469999999], [2.1540464, 41.3838572], [2.1541458999999996, 41.3837834]], [[2.1537349, 41.38408640000001], [2.1539549, 41.38407699999999], [2.1539848, 41.384074999999996], [2.1540764000000006, 41.3840363]], [[2.1541482000000007, 41.38395189999999], [2.1541465000000004, 41.38386529999999], [2.1541458999999996, 41.3837834]], [[2.1541458999999996, 41.3837834], [2.1548883, 41.38321380000001], [2.1550051000000003, 41.38321289999999], [2.1551163, 41.38321220000001]], [[2.1548910000000006, 41.38312839999999], [2.1549257000000006, 41.383126299999994], [2.1550087, 41.3831261], [2.1550633000000006, 41.3830846], [2.1551172000000003, 41.38304539999999], [2.1551974, 41.383042700000004], [2.1552358000000007, 41.383039999999994]], [[2.1552369, 41.3829613], [2.1555348, 41.382724599999996], [2.1559777000000007, 41.38239269999999]], [[2.1562974, 41.382410700000015], [2.1560748000000003, 41.3824097], [2.1559777000000007, 41.38239269999999]], [[2.1559777000000007, 41.38239269999999], [2.1559951, 41.3823793]], [[2.1559951, 41.3823793], [2.1560047, 41.3822196]], [[2.1559951, 41.3823793], [2.1561239999999997, 41.3822797], [2.156132, 41.3822734], [2.1561493, 41.3822599], [2.1561886000000006, 41.38222909999999], [2.1562233, 41.38220179999999], [2.1562315000000005, 41.38219539999999], [2.1562419000000004, 41.38218719999999], [2.1564060000000005, 41.3820707]], [[2.1564060000000005, 41.3820707], [2.1561414000000005, 41.3821129], [2.1560355999999996, 41.38211450000001]], [[2.1564058999999998, 41.382232699999996], [2.1564060000000005, 41.3820707]], [[2.1564060000000005, 41.3820707], [2.1571795, 41.381491800000006], [2.1572009, 41.3814756]], [[2.1572009, 41.3814756], [2.1571481000000006, 41.3814359]], [[2.1572356, 41.381497100000004], [2.1572009, 41.3814756]], [[2.1572009, 41.3814756], [2.1572086401036485, 41.3814697423852]]]}}]}