{"type": "FeatureCollection", "features": [{"type": "Feature", "properties": {"axis": "consell_de_cent", "phase": "eixos_verds_2022_2023", "length_m": 2999.5, "kind": "principal_as_built"}, "geometry": {"type": "LineString", "coordinates": [[2.1495035290718105, 41.3787849800429], [2.155270123, 41.38319485000001], [2.1580927938814005, 41.3859229631157], [2.15999405057183, 41.386194306447806], [2.16782623743917, 41.392200590956], [2.1701753430000004, 41.394429536], [2.1704924320000005, 41.395294749], [2.1747, 41.397299999999994]]}}, {"type": "Feature", "properties": {"axis": "girona", "phase": "eixos_verds_2022_2023", "length_m": 750.0, "kind": "principal_as_built"}, "geometry": {"type": "LineString", "coordinates": [[2.1673038609521886, 41.39762127887332], [2.1736309672576097, 41.392832236105406]]}}, {"type": "Feature", "properties": {"axis": "rocafort", "phase": "eixos_verds_2022_2023", "length_m": 600.0, "kind": "principal_as_built"}, "geometry": {"type": "LineString", "coordinates": [[2.149181975934614, 41.38238992326885], [2.154264484791839, 41.37857523166315]]}}, {"type": "Feature", "properties": {"axis": "borrell", "phase": "eixos_verds_2022_2023", "length_m": 500.0, "kind": "principal_as_built"}, "geometry": {"type": "LineString", "coordinates": [[2.1529734141377967, 41.38464753687942], [2.15721361251984, 41.38147211129529]]}}]}